OSCAR 7 (AO-7)          
1 07530U 74089B   26074.29269516 -.00000017  00000+0  18715-3 0  9995
2 07530 101.9965  86.5429 0011940 311.2558  73.8139 12.53696525348754
PHASE 3B (AO-10)        
1 14129U 83058B   26072.70379219  .00000107  00000+0  00000+0 0  9992
2 14129  25.9213 235.5807 6045284  89.2129 335.2286  2.05870209293524
UOSAT 2 (UO-11)         
1 14781U 84021B   26074.17847502  .00001867  00000+0  19671-3 0  9997
2 14781  97.7955  40.8755 0008762 127.6246 232.5769 14.90527996243123
LUSAT (LO-19)           
1 20442U 90005G   26074.27239586  .00000161  00000+0  74078-4 0  9994
2 20442  98.8932  93.4575 0012543 119.3021 240.9418 14.34090491888937
EYESAT A (AO-27)        
1 22825U 93061C   26074.16118923  .00000119  00000+0  62219-4 0  9992
2 22825  98.6970 141.5751 0008689  23.9428 336.2157 14.30915039693553
ITAMSAT (IO-26)         
1 22826U 93061D   26074.16852825  .00000139  00000+0  69403-4 0  9993
2 22826  98.6919 141.4905 0008884   7.4629 352.6685 14.31339302693860
RADIO ROSTO (RS15)      
1 23439U 94085A   26074.28293971 -.00000025  00000+0  48810-3 0  9998
2 23439  64.8136  95.0862 0152859  20.9759 339.7347 11.27583871285311
JAS-2 (FO-29)           
1 24278U 96046B   26074.19159530  .00000020  00000+0  58263-4 0  9999
2 24278  98.5374 295.8667 0349589 340.4957  18.3080 13.53269112460456
TECHSAT 1B (GO-32)      
1 25397U 98043D   26074.21911521  .00000090  00000+0  59216-4 0  9996
2 25397  99.0031  64.6273 0002206 110.6069 249.5346 14.24407785437954
ISS (ZARYA)             
1 25544U 98067A   26074.19246378  .00009711  00000+0  18872-3 0  9995
2 25544  51.6330  45.1519 0006363 192.7288 167.3540 15.48288531557187
PCSAT (NO-44)           
1 26931U 01043C   26074.28584824  .00000146  00000+0  85473-4 0  9990
2 26931  67.0497 127.1397 0006990 264.9962  95.0342 14.31915099277009
SAUDISAT 1C (SO-50)     
1 27607U 02058C   26074.28269332  .00001914  00000+0  24290-3 0  9995
2 27607  64.5527  59.4737 0075330 279.6734  79.5868 14.82809007250531
CUTE-1 (CO-55)          
1 27844U 03031E   26074.25416618  .00000369  00000+0  17886-3 0  9994
2 27844  98.6777  83.9839 0010766  98.1301 262.1099 14.24271187178308
CUBESAT XI-IV (CO-57)   
1 27848U 03031J   26073.56320221  .00000349  00000+0  17224-3 0  9999
2 27848  98.6807  83.0901 0010521 116.0304 244.1959 14.23565240177915
MOZHAETS 4 (RS22)       
1 27939U 03042A   26074.30191323  .00001689  00000+0  26948-3 0  9995
2 27939  98.3445 256.0190 0010815 201.0915 283.2104 14.73272833201723
CUBESAT XI-V            
1 28895U 05043F   26073.94879543  .00002291  00000+0  36984-3 0  9997
2 28895  98.2839 227.6725 0014997 141.6480 218.5796 14.72345947 87883
