[{"OBJECT_NAME":"OSCAR 7 (AO-7)","OBJECT_ID":"1974-089B","EPOCH":"2026-03-15T07:01:28.861824","MEAN_MOTION":12.53696525,"ECCENTRICITY":0.00119406,"INCLINATION":101.9965,"RA_OF_ASC_NODE":86.5429,"ARG_OF_PERICENTER":311.2558,"MEAN_ANOMALY":73.8139,"EPHEMERIS_TYPE":0,"CLASSIFICATION_TYPE":"U","NORAD_CAT_ID":7530,"ELEMENT_SET_NO":999,"REV_AT_EPOCH":34875,"BSTAR":0.00018715212,"MEAN_MOTION_DOT":-1.7e-7,"MEAN_MOTION_DDOT":0},{"OBJECT_NAME":"PHASE 3B (AO-10)","OBJECT_ID":"1983-058B","EPOCH":"2026-03-13T16:53:27.645216","MEAN_MOTION":2.05870209,"ECCENTRICITY":0.60452846,"INCLINATION":25.9213,"RA_OF_ASC_NODE":235.5807,"ARG_OF_PERICENTER":89.2129,"MEAN_ANOMALY":335.2286,"EPHEMERIS_TYPE":0,"CLASSIFICATION_TYPE":"U","NORAD_CAT_ID":14129,"ELEMENT_SET_NO":999,"REV_AT_EPOCH":29352,"BSTAR":0,"MEAN_MOTION_DOT":1.07e-6,"MEAN_MOTION_DDOT":0},{"OBJECT_NAME":"UOSAT 2 (UO-11)","OBJECT_ID":"1984-021B","EPOCH":"2026-03-15T04:17:00.241728","MEAN_MOTION":14.90527996,"ECCENTRICITY":0.0008762,"INCLINATION":97.7955,"RA_OF_ASC_NODE":40.8755,"ARG_OF_PERICENTER":127.6246,"MEAN_ANOMALY":232.5769,"EPHEMERIS_TYPE":0,"CLASSIFICATION_TYPE":"U","NORAD_CAT_ID":14781,"ELEMENT_SET_NO":999,"REV_AT_EPOCH":24312,"BSTAR":0.00019671036,"MEAN_MOTION_DOT":1.867e-5,"MEAN_MOTION_DDOT":0},{"OBJECT_NAME":"LUSAT (LO-19)","OBJECT_ID":"1990-005G","EPOCH":"2026-03-15T06:32:15.002304","MEAN_MOTION":14.34090491,"ECCENTRICITY":0.0012543,"INCLINATION":98.8932,"RA_OF_ASC_NODE":93.4575,"ARG_OF_PERICENTER":119.3021,"MEAN_ANOMALY":240.9418,"EPHEMERIS_TYPE":0,"CLASSIFICATION_TYPE":"U","NORAD_CAT_ID":20442,"ELEMENT_SET_NO":999,"REV_AT_EPOCH":88893,"BSTAR":7.4077635e-5,"MEAN_MOTION_DOT":1.61e-6,"MEAN_MOTION_DDOT":0},{"OBJECT_NAME":"EYESAT A (AO-27)","OBJECT_ID":"1993-061C","EPOCH":"2026-03-15T03:52:06.749472","MEAN_MOTION":14.30915039,"ECCENTRICITY":0.0008689,"INCLINATION":98.697,"RA_OF_ASC_NODE":141.5751,"ARG_OF_PERICENTER":23.9428,"MEAN_ANOMALY":336.2157,"EPHEMERIS_TYPE":0,"CLASSIFICATION_TYPE":"U","NORAD_CAT_ID":22825,"ELEMENT_SET_NO":999,"REV_AT_EPOCH":69355,"BSTAR":6.2219428e-5,"MEAN_MOTION_DOT":1.19e-6,"MEAN_MOTION_DDOT":0},{"OBJECT_NAME":"ITAMSAT (IO-26)","OBJECT_ID":"1993-061D","EPOCH":"2026-03-15T04:02:40.840800","MEAN_MOTION":14.31339302,"ECCENTRICITY":0.0008884,"INCLINATION":98.6919,"RA_OF_ASC_NODE":141.4905,"ARG_OF_PERICENTER":7.4629,"MEAN_ANOMALY":352.6685,"EPHEMERIS_TYPE":0,"CLASSIFICATION_TYPE":"U","NORAD_CAT_ID":22826,"ELEMENT_SET_NO":999,"REV_AT_EPOCH":69386,"BSTAR":6.9403112e-5,"MEAN_MOTION_DOT":1.39e-6,"MEAN_MOTION_DDOT":0},{"OBJECT_NAME":"RADIO ROSTO (RS15)","OBJECT_ID":"1994-085A","EPOCH":"2026-03-15T06:47:25.990944","MEAN_MOTION":11.27583871,"ECCENTRICITY":0.01528592,"INCLINATION":64.8136,"RA_OF_ASC_NODE":95.0862,"ARG_OF_PERICENTER":20.9759,"MEAN_ANOMALY":339.7347,"EPHEMERIS_TYPE":0,"CLASSIFICATION_TYPE":"U","NORAD_CAT_ID":23439,"ELEMENT_SET_NO":999,"REV_AT_EPOCH":28531,"BSTAR":0.00048809838,"MEAN_MOTION_DOT":-2.5e-7,"MEAN_MOTION_DDOT":0},{"OBJECT_NAME":"JAS-2 (FO-29)","OBJECT_ID":"1996-046B","EPOCH":"2026-03-15T04:35:53.833920","MEAN_MOTION":13.53269112,"ECCENTRICITY":0.03495898,"INCLINATION":98.5374,"RA_OF_ASC_NODE":295.8667,"ARG_OF_PERICENTER":340.4957,"MEAN_ANOMALY":18.308,"EPHEMERIS_TYPE":0,"CLASSIFICATION_TYPE":"U","NORAD_CAT_ID":24278,"ELEMENT_SET_NO":999,"REV_AT_EPOCH":46045,"BSTAR":5.8262919e-5,"MEAN_MOTION_DOT":2.0e-7,"MEAN_MOTION_DDOT":0},{"OBJECT_NAME":"TECHSAT 1B (GO-32)","OBJECT_ID":"1998-043D","EPOCH":"2026-03-15T05:15:31.554144","MEAN_MOTION":14.24407785,"ECCENTRICITY":0.00022065,"INCLINATION":99.0031,"RA_OF_ASC_NODE":64.6273,"ARG_OF_PERICENTER":110.6069,"MEAN_ANOMALY":249.5346,"EPHEMERIS_TYPE":0,"CLASSIFICATION_TYPE":"U","NORAD_CAT_ID":25397,"ELEMENT_SET_NO":999,"REV_AT_EPOCH":43795,"BSTAR":5.921555e-5,"MEAN_MOTION_DOT":9.0e-7,"MEAN_MOTION_DDOT":0},{"OBJECT_NAME":"ISS (ZARYA)","OBJECT_ID":"1998-067A","EPOCH":"2026-03-15T04:37:08.870592","MEAN_MOTION":15.48288531,"ECCENTRICITY":0.00063636,"INCLINATION":51.633,"RA_OF_ASC_NODE":45.1519,"ARG_OF_PERICENTER":192.7288,"MEAN_ANOMALY":167.354,"EPHEMERIS_TYPE":0,"CLASSIFICATION_TYPE":"U","NORAD_CAT_ID":25544,"ELEMENT_SET_NO":999,"REV_AT_EPOCH":55718,"BSTAR":0.0001887181,"MEAN_MOTION_DOT":9.711e-5,"MEAN_MOTION_DDOT":0},{"OBJECT_NAME":"PCSAT (NO-44)","OBJECT_ID":"2001-043C","EPOCH":"2026-03-15T06:51:37.287936","MEAN_MOTION":14.31915099,"ECCENTRICITY":0.00069909,"INCLINATION":67.0497,"RA_OF_ASC_NODE":127.1397,"ARG_OF_PERICENTER":264.9962,"MEAN_ANOMALY":95.0342,"EPHEMERIS_TYPE":0,"CLASSIFICATION_TYPE":"U","NORAD_CAT_ID":26931,"ELEMENT_SET_NO":999,"REV_AT_EPOCH":27700,"BSTAR":8.5473282e-5,"MEAN_MOTION_DOT":1.46e-6,"MEAN_MOTION_DDOT":0},{"OBJECT_NAME":"SAUDISAT 1C (SO-50)","OBJECT_ID":"2002-058C","EPOCH":"2026-03-15T06:47:04.702848","MEAN_MOTION":14.82809007,"ECCENTRICITY":0.00753308,"INCLINATION":64.5527,"RA_OF_ASC_NODE":59.4737,"ARG_OF_PERICENTER":279.6734,"MEAN_ANOMALY":79.5868,"EPHEMERIS_TYPE":0,"CLASSIFICATION_TYPE":"U","NORAD_CAT_ID":27607,"ELEMENT_SET_NO":999,"REV_AT_EPOCH":25053,"BSTAR":0.00024290299,"MEAN_MOTION_DOT":1.914e-5,"MEAN_MOTION_DDOT":0},{"OBJECT_NAME":"CUTE-1 (CO-55)","OBJECT_ID":"2003-031E","EPOCH":"2026-03-15T06:05:59.957952","MEAN_MOTION":14.24271187,"ECCENTRICITY":0.00107666,"INCLINATION":98.6777,"RA_OF_ASC_NODE":83.9839,"ARG_OF_PERICENTER":98.1301,"MEAN_ANOMALY":262.1099,"EPHEMERIS_TYPE":0,"CLASSIFICATION_TYPE":"U","NORAD_CAT_ID":27844,"ELEMENT_SET_NO":999,"REV_AT_EPOCH":17830,"BSTAR":0.00017886427,"MEAN_MOTION_DOT":3.69e-6,"MEAN_MOTION_DDOT":0},{"OBJECT_NAME":"CUBESAT XI-IV (CO-57)","OBJECT_ID":"2003-031J","EPOCH":"2026-03-14T13:31:00.670944","MEAN_MOTION":14.2356524,"ECCENTRICITY":0.00105214,"INCLINATION":98.6807,"RA_OF_ASC_NODE":83.0901,"ARG_OF_PERICENTER":116.0304,"MEAN_ANOMALY":244.1959,"EPHEMERIS_TYPE":0,"CLASSIFICATION_TYPE":"U","NORAD_CAT_ID":27848,"ELEMENT_SET_NO":999,"REV_AT_EPOCH":17791,"BSTAR":0.00017224166,"MEAN_MOTION_DOT":3.49e-6,"MEAN_MOTION_DDOT":0},{"OBJECT_NAME":"MOZHAETS 4 (RS22)","OBJECT_ID":"2003-042A","EPOCH":"2026-03-15T07:14:45.303072","MEAN_MOTION":14.73272833,"ECCENTRICITY":0.00108156,"INCLINATION":98.3445,"RA_OF_ASC_NODE":256.019,"ARG_OF_PERICENTER":201.0915,"MEAN_ANOMALY":283.2104,"EPHEMERIS_TYPE":0,"CLASSIFICATION_TYPE":"U","NORAD_CAT_ID":27939,"ELEMENT_SET_NO":999,"REV_AT_EPOCH":20172,"BSTAR":0.00026948129,"MEAN_MOTION_DOT":1.689e-5,"MEAN_MOTION_DDOT":0},{"OBJECT_NAME":"CUBESAT XI-V","OBJECT_ID":"2005-043F","EPOCH":"2026-03-14T22:46:15.925152","MEAN_MOTION":14.72345947,"ECCENTRICITY":0.00149979,"INCLINATION":98.2839,"RA_OF_ASC_NODE":227.6725,"ARG_OF_PERICENTER":141.648,"MEAN_ANOMALY":218.5796,"EPHEMERIS_TYPE":0,"CLASSIFICATION_TYPE":"U","NORAD_CAT_ID":28895,"ELEMENT_SET_NO":999,"REV_AT_EPOCH":8788,"BSTAR":0.00036984408,"MEAN_MOTION_DOT":2.291e-5,"MEAN_MOTION_DDOT":0}]
